[{"OBJECT_NAME":"QIANFAN-21","OBJECT_ID":"2024-185C","EPOCH":"2026-03-09T23:11:03.920640","MEAN_MOTION":14.22734833,"ECCENTRICITY":0.00130039,"INCLINATION":88.9681,"RA_OF_ASC_NODE":66.7409,"ARG_OF_PERICENTER":81.1946,"MEAN_ANOMALY":279.0717,"EPHEMERIS_TYPE":0,"CLASSIFICATION_TYPE":"U","NORAD_CAT_ID":61554,"ELEMENT_SET_NO":999,"REV_AT_EPOCH":8237,"BSTAR":0.00034568137,"MEAN_MOTION_DOT":7.89e-6,"MEAN_MOTION_DDOT":0},{"OBJECT_NAME":"NOAA 16 DEB","OBJECT_ID":"2000-055MA","EPOCH":"2026-03-07T08:51:02.820096","MEAN_MOTION":14.23629817,"ECCENTRICITY":0.00097688,"INCLINATION":98.6532,"RA_OF_ASC_NODE":118.9196,"ARG_OF_PERICENTER":70.9431,"MEAN_ANOMALY":289.2805,"EPHEMERIS_TYPE":0,"CLASSIFICATION_TYPE":"U","NORAD_CAT_ID":41502,"ELEMENT_SET_NO":999,"REV_AT_EPOCH":51684,"BSTAR":0.0016863358,"MEAN_MOTION_DOT":3.804e-5,"MEAN_MOTION_DDOT":0}]
